TOMSAT R3 (AEROCUBE 11B)
1 43849U 18104A   22348.80364444  .00020861  00000+0  65310-3 0  9998
2 43849  85.0301 290.5496 0010742 318.8624  41.1813 15.32927910222281
SHIELDS 1               
1 43850U 18104B   22349.11199716  .00006414  00000+0  25440-3 0  9991
2 43850  85.0274 292.2136 0012155 329.7606  30.2935 15.25094368222023
ELECTRON KICK STAGE R/B 
1 43851U 18104C   22348.79033910  .00026668  00000+0  76476-3 0  9996
2 43851  85.0300 289.5808 0007277 305.1008  54.9558 15.35725037222379
STF-1                   
1 43852U 18104D   22349.29562929  .00018588  00000+0  61995-3 0  9992
2 43852  85.0286 291.6857 0010657 344.8057  15.2868 15.30898567222166
2018-104F               
1 43854U 18104F   22348.74540208  .00027266  00000+0  75533-3 0  9995
2 43854  85.0227 287.4966 0008775 294.6579  65.3757 15.36791257222411
CHOMPTT                 
1 43855U 18104G   22348.34936708  .00014663  00000+0  48612-3 0  9991
2 43855  85.0333 290.9250 0011174 297.1045  62.9061 15.31082683222218
CP11 (ISX)              
1 43856U 18104H   22349.28871869  .00015899  00000+0  56326-3 0  9995
2 43856  85.0289 292.6603 0011585 352.3454   7.7613 15.28926927222072
DAVINCI                 
1 43857U 18104J   22349.26022483  .00159456  00000+0  19641-2 0  9990
2 43857  85.0171 285.0315 0002861  43.5456 316.6032 15.59684969222783
2018-104K               
1 43858U 18104K   22348.59595951  .00013808  00000+0  48958-3 0  9995
2 43858  85.0289 292.1187 0012153 337.2030  22.8674 15.28889306222041
2018-104L               
1 43859U 18104L   22349.28585633  .00013549  00000+0  48147-3 0  9991
2 43859  85.0267 291.1424 0009569 330.6708  29.4000 15.28842507222157
TOMSAT EAGLESCOUT       
1 43861U 18104N   22348.85140219  .00019324  00000+0  62528-3 0  9999
2 43861  85.0384 292.5765 0010525 319.5760  40.4704 15.31875780222226
GSAT-7A                 
1 43864U 18105A   22349.00965830  .00000047  00000+0  00000+0 0  9990
2 43864   0.0346 248.0731 0002600 355.1467 266.6740  1.00271921 14610
COSMOS 2533             
1 43867U 18107A   22349.18521642 -.00000018  00000+0  00000+0 0  9992
2 43867   0.0431  83.5042 0000884 217.3696 279.6517  1.00273907 14588
HONGYUN 1               
1 43871U 18108A   22349.18263161  .00000019  00000+0  10000-3 0  9992
2 43871  99.8686   7.2302 0011790 307.2803  52.7238 13.50521358196293
NAVSTAR 77 (USA 289)    
1 43873U 18109A   22343.72472060  .00000036  00000+0  00000+0 0  9993
2 43873  55.1258 142.9751 0022232 187.6516 207.9617  2.00556976 29291
TJS-3                   
1 43874U 18110A   22348.92829726 -.00000327  00000+0  00000+0 0  9992
2 43874   0.0769 261.8179 0001354   6.6266 254.3249  1.00435668 14583
KANOPUS-V 5             
1 43876U 18111A   22349.25021299  .00002968  00000+0  13655-3 0  9997
2 43876  97.4224 255.2093 0001646  75.7802  78.5000 15.21108703218021
KANOPUS-V 6             
1 43877U 18111B   22349.28313639  .00003137  00000+0  14420-3 0  9993
2 43877  97.4225 255.2477 0002001  77.8379  36.5469 15.21096718218022
ISAT                    
1 43879U 18111D   22348.68539595  .00005476  00000+0  45233-3 0  9993
2 43879  97.6539 251.0198 0015101  77.5943 282.6969 14.99280418216660
UWE-4                   
1 43880U 18111E   22348.74016086  .00004572  00000+0  37802-3 0  9996
2 43880  97.6556 251.8871 0012755  80.4771 279.7893 14.99352806216700
D-STAR ONE (SPARROW)    
1 43881U 18111F   22348.73495710  .00004697  00000+0  38593-3 0  9997
2 43881  97.6568 252.1912 0011789  78.3185 281.9361 14.99592695216713
LEMUR-2-CHRISTINAHOLT   
1 43882U 18111G   22348.68206697  .00007593  00000+0  59523-3 0  9990
2 43882  97.6648 253.6432 0012325  35.3598 324.8442 15.01196260216780
LEMUR-2-TINYKEV         
1 43883U 18111H   22349.18057774  .00008807  00000+0  68125-3 0  9994
2 43883  97.6408 254.3075 0013614  48.2909 311.9478 15.01643963214878
LEMUR-2-REMY-COLTON     
1 43884U 18111J   22349.26429181  .00007307  00000+0  56828-3 0  9990
2 43884  97.6588 255.0023 0004386  91.7806 268.3921 15.01563101214912
LEMUR-2-GUSTAVO         
1 43885U 18111K   22348.53920547  .00006654  00000+0  52227-3 0  9995
2 43885  97.6586 253.8584 0017702  46.1299 314.1384 15.01134941214778
LEMUR-2-ZO              
1 43886U 18111L   22349.18877864  .00006364  00000+0  49935-3 0  9991
2 43886  97.6492 254.8041 0018023  75.8195 284.5030 15.01154747214881
