OBJECT_NAME,OBJECT_ID,EPOCH,MEAN_MOTION,ECCENTRICITY,INCLINATION,RA_OF_ASC_NODE,ARG_OF_PERICENTER,MEAN_ANOMALY,EPHEMERIS_TYPE,CLASSIFICATION_TYPE,NORAD_CAT_ID,ELEMENT_SET_NO,REV_AT_EPOCH,BSTAR,MEAN_MOTION_DOT,MEAN_MOTION_DDOT
TOMSAT R3 (AEROCUBE 11B),2018-104A,2022-12-14T19:17:14.879616,15.32927910,.0010742,85.0301,290.5496,318.8624,41.1813,0,U,43849,999,22228,.6531E-3,.20861E-3,0
SHIELDS 1,2018-104B,2022-12-15T02:41:16.554624,15.25094368,.0012155,85.0274,292.2136,329.7606,30.2935,0,U,43850,999,22202,.2544E-3,.6414E-4,0
ELECTRON KICK STAGE R/B,2018-104C,2022-12-14T18:58:05.298240,15.35725037,.0007277,85.0300,289.5808,305.1008,54.9558,0,U,43851,999,22237,.76476E-3,.26668E-3,0
STF-1,2018-104D,2022-12-15T07:05:42.370656,15.30898567,.0010657,85.0286,291.6857,344.8057,15.2868,0,U,43852,999,22216,.61995E-3,.18588E-3,0
OBJECT F,2018-104F,2022-12-14T17:53:22.739712,15.36791257,.0008775,85.0227,287.4966,294.6579,65.3757,0,U,43854,999,22241,.75533E-3,.27266E-3,0
CHOMPTT,2018-104G,2022-12-14T08:23:05.315712,15.31082683,.0011174,85.0333,290.9250,297.1045,62.9061,0,U,43855,999,22221,.48612E-3,.14663E-3,0
CP11 (ISX),2018-104H,2022-12-15T06:55:45.294816,15.28926927,.0011585,85.0289,292.6603,352.3454,7.7613,0,U,43856,999,22207,.56326E-3,.15899E-3,0
DAVINCI,2018-104J,2022-12-15T06:14:43.425312,15.59684969,.0002861,85.0171,285.0315,43.5456,316.6032,0,U,43857,999,22278,.19641E-2,.159456E-2,0
OBJECT K,2018-104K,2022-12-14T14:18:10.901664,15.28889306,.0012153,85.0289,292.1187,337.2030,22.8674,0,U,43858,999,22204,.48958E-3,.13808E-3,0
OBJECT L,2018-104L,2022-12-15T06:51:37.986912,15.28842507,.0009569,85.0267,291.1424,330.6708,29.4000,0,U,43859,999,22215,.48147E-3,.13549E-3,0
TOMSAT EAGLESCOUT,2018-104N,2022-12-14T20:26:01.149216,15.31875780,.0010525,85.0384,292.5765,319.5760,40.4704,0,U,43861,999,22222,.62528E-3,.19324E-3,0
GSAT-7A,2018-105A,2022-12-15T00:13:54.477120,1.00271921,.00026,0.0346,248.0731,355.1467,266.6740,0,U,43864,999,1461,0,.47E-6,0
COSMOS 2533,2018-107A,2022-12-15T04:26:42.698688,1.00273907,.0000884,0.0431,83.5042,217.3696,279.6517,0,U,43867,999,1458,0,-.18E-6,0
HONGYUN 1,2018-108A,2022-12-15T04:22:59.371104,13.50521358,.001179,99.8686,7.2302,307.2803,52.7238,0,U,43871,999,19629,.1E-3,.19E-6,0
NAVSTAR 77 (USA 289),2018-109A,2022-12-09T17:23:35.859840,2.00556976,.0022232,55.1258,142.9751,187.6516,207.9617,0,U,43873,999,2929,0,.36E-6,0
TJS-3,2018-110A,2022-12-14T22:16:44.883264,1.00435668,.0001354,0.0769,261.8179,6.6266,254.3249,0,U,43874,999,1458,0,-.327E-5,0
KANOPUS-V 5,2018-111A,2022-12-15T06:00:18.402336,15.21108703,.0001646,97.4224,255.2093,75.7802,78.5000,0,U,43876,999,21802,.13655E-3,.2968E-4,0
KANOPUS-V 6,2018-111B,2022-12-15T06:47:42.984096,15.21096718,.0002001,97.4225,255.2477,77.8379,36.5469,0,U,43877,999,21802,.1442E-3,.3137E-4,0
ISAT,2018-111D,2022-12-14T16:26:58.210080,14.99280418,.0015101,97.6539,251.0198,77.5943,282.6969,0,U,43879,999,21666,.45233E-3,.5476E-4,0
UWE-4,2018-111E,2022-12-14T17:45:49.898304,14.99352806,.0012755,97.6556,251.8871,80.4771,279.7893,0,U,43880,999,21670,.37802E-3,.4572E-4,0
D-STAR ONE (SPARROW),2018-111F,2022-12-14T17:38:20.293440,14.99592695,.0011789,97.6568,252.1912,78.3185,281.9361,0,U,43881,999,21671,.38593E-3,.4697E-4,0
LEMUR-2-CHRISTINAHOLT,2018-111G,2022-12-14T16:22:10.586208,15.01196260,.0012325,97.6648,253.6432,35.3598,324.8442,0,U,43882,999,21678,.59523E-3,.7593E-4,0
LEMUR-2-TINYKEV,2018-111H,2022-12-15T04:20:01.916736,15.01643963,.0013614,97.6408,254.3075,48.2909,311.9478,0,U,43883,999,21487,.68125E-3,.8807E-4,0
LEMUR-2-REMY-COLTON,2018-111J,2022-12-15T06:20:34.812384,15.01563101,.0004386,97.6588,255.0023,91.7806,268.3921,0,U,43884,999,21491,.56828E-3,.7307E-4,0
LEMUR-2-GUSTAVO,2018-111K,2022-12-14T12:56:27.352608,15.01134941,.0017702,97.6586,253.8584,46.1299,314.1384,0,U,43885,999,21477,.52227E-3,.6654E-4,0
LEMUR-2-ZO,2018-111L,2022-12-15T04:31:50.474496,15.01154747,.0018023,97.6492,254.8041,75.8195,284.5030,0,U,43886,999,21488,.49935E-3,.6364E-4,0
